{
  "type": "FeatureCollection",
  "features": [
    {
      "type": "Feature",
      "properties": {
        "norad_id": 40069,
        "name": "METEOR-M 2",
        "group": "weather",
        "lat": -7.970019951797961,
        "lon": 156.03184516956335,
        "alt_km": 820.6954877847656,
        "timestamp": "2025-12-26T03:50:11.729949+00:00",
        "meta_object_name": "METEOR-M 2",
        "meta_object_id": "2014-037A",
        "meta_epoch": "2025-12-25T21:53:13.140096",
        "meta_mean_motion": 14.21391861,
        "meta_eccentricity": 0.0005685,
        "meta_inclination": 98.4921,
        "meta_ra_of_asc_node": 336.992,
        "meta_arg_of_pericenter": 169.0219,
        "meta_mean_anomaly": 191.1084,
        "meta_ephemeris_type": 0,
        "meta_classification_type": "U",
        "meta_norad_cat_id": 40069,
        "meta_element_set_no": 999,
        "meta_rev_at_epoch": 59470,
        "meta_bstar": 0.0001182,
        "meta_mean_motion_dot": 2.16e-06,
        "meta_mean_motion_ddot": 0,
        "tle_line1": "1 40069U 14037A   25359.91195764  .00000216  00000+0  11820-3 0  9993",
        "tle_line2": "2 40069  98.4921 336.9920 0005685 169.0219 191.1084 14.21391861594703"
      },
      "geometry": {
        "type": "Point",
        "coordinates": [
          156.03184516956335,
          -7.970019951797961
        ]
      }
    },
    {
      "type": "Feature",
      "properties": {
        "norad_id": 40267,
        "name": "HIMAWARI-8",
        "group": "weather",
        "lat": 0.020572019805541502,
        "lon": -66.8849740309064,
        "alt_km": 35782.298279414856,
        "timestamp": "2025-12-26T03:50:11.729960+00:00",
        "meta_object_name": "HIMAWARI-8",
        "meta_object_id": "2014-060A",
        "meta_epoch": "2025-12-25T18:52:08.830848",
        "meta_mean_motion": 1.00270926,
        "meta_eccentricity": 9.82e-05,
        "meta_inclination": 0.043,
        "meta_ra_of_asc_node": 197.7333,
        "meta_arg_of_pericenter": 107.2071,
        "meta_mean_anomaly": 213.3047,
        "meta_ephemeris_type": 0,
        "meta_classification_type": "U",
        "meta_norad_cat_id": 40267,
        "meta_element_set_no": 999,
        "meta_rev_at_epoch": 4102,
        "meta_bstar": 0,
        "meta_mean_motion_dot": -2.54e-06,
        "meta_mean_motion_ddot": 0,
        "tle_line1": "1 40267U 14060A   25359.78621332 -.00000254  00000+0  00000+0 0  9996",
        "tle_line2": "2 40267   0.0430 197.7333 0000982 107.2071 213.3047  1.00270926 41022"
      },
      "geometry": {
        "type": "Point",
        "coordinates": [
          -66.8849740309064,
          0.020572019805541502
        ]
      }
    },
    {
      "type": "Feature",
      "properties": {
        "norad_id": 40367,
        "name": "FENGYUN 2G",
        "group": "weather",
        "lat": 0.2761419375791793,
        "lon": -108.25584576228157,
        "alt_km": 35776.0411607927,
        "timestamp": "2025-12-26T03:50:11.729972+00:00",
        "meta_object_name": "FENGYUN 2G",
        "meta_object_id": "2014-090A",
        "meta_epoch": "2025-12-25T18:56:24.512640",
        "meta_mean_motion": 1.00281963,
        "meta_eccentricity": 0.0001712,
        "meta_inclination": 5.1984,
        "meta_ra_of_asc_node": 74.9353,
        "meta_arg_of_pericenter": 171.7159,
        "meta_mean_anomaly": 231.2546,
        "meta_ephemeris_type": 0,
        "meta_classification_type": "U",
        "meta_norad_cat_id": 40367,
        "meta_element_set_no": 999,
        "meta_rev_at_epoch": 4026,
        "meta_bstar": 0,
        "meta_mean_motion_dot": -2.82e-06,
        "meta_mean_motion_ddot": 0,
        "tle_line1": "1 40367U 14090A   25359.78917260 -.00000282  00000+0  00000+0 0  9999",
        "tle_line2": "2 40367   5.1984  74.9353 0001712 171.7159 231.2546  1.00281963 40267"
      },
      "geometry": {
        "type": "Point",
        "coordinates": [
          -108.25584576228157,
          0.2761419375791793
        ]
      }
    },
    {
      "type": "Feature",
      "properties": {
        "norad_id": 40732,
        "name": "METEOSAT-11 (MSG-4)",
        "group": "weather",
        "lat": 2.7809213800238264,
        "lon": 161.6304553529701,
        "alt_km": 35783.75183340449,
        "timestamp": "2025-12-26T03:50:11.729984+00:00",
        "meta_object_name": "METEOSAT-11 (MSG-4)",
        "meta_object_id": "2015-034A",
        "meta_epoch": "2025-12-25T16:31:52.263840",
        "meta_mean_motion": 1.00271545,
        "meta_eccentricity": 7e-05,
        "meta_inclination": 2.7688,
        "meta_ra_of_asc_node": 71.966,
        "meta_arg_of_pericenter": 136.703,
        "meta_mean_anomaly": 142.9271,
        "meta_ephemeris_type": 0,
        "meta_classification_type": "U",
        "meta_norad_cat_id": 40732,
        "meta_element_set_no": 999,
        "meta_rev_at_epoch": 547,
        "meta_bstar": 0,
        "meta_mean_motion_dot": 8.2e-07,
        "meta_mean_motion_ddot": 0,
        "tle_line1": "1 40732U 15034A   25359.68879935  .00000082  00000+0  00000+0 0  9996",
        "tle_line2": "2 40732   2.7688  71.9660 0000700 136.7030 142.9271  1.00271545  5472"
      },
      "geometry": {
        "type": "Point",
        "coordinates": [
          161.6304553529701,
          2.7809213800238264
        ]
      }
    },
    {
      "type": "Feature",
      "properties": {
        "norad_id": 41105,
        "name": "ELEKTRO-L 2",
        "group": "weather",
        "lat": 5.699652190566514,
        "lon": 137.8320333323743,
        "alt_km": 35797.2378779628,
        "timestamp": "2025-12-26T03:50:11.729996+00:00",
        "meta_object_name": "ELEKTRO-L 2",
        "meta_object_id": "2015-074A",
        "meta_epoch": "2025-12-24T23:18:12.436992",
        "meta_mean_motion": 1.0027204,
        "meta_eccentricity": 0.000354,
        "meta_inclination": 6.2545,
        "meta_ra_of_asc_node": 72.6824,
        "meta_arg_of_pericenter": 208.1447,
        "meta_mean_anomaly": 147.994,
        "meta_ephemeris_type": 0,
        "meta_classification_type": "U",
        "meta_norad_cat_id": 41105,
        "meta_element_set_no": 999,
        "meta_rev_at_epoch": 3675,
        "meta_bstar": 0,
        "meta_mean_motion_dot": -9.8e-07,
        "meta_mean_motion_ddot": 0,
        "tle_line1": "1 41105U 15074A   25358.97097728 -.00000098  00000+0  00000+0 0  9996",
        "tle_line2": "2 41105   6.2545  72.6824 0003540 208.1447 147.9940  1.00272040 36753"
      },
      "geometry": {
        "type": "Point",
        "coordinates": [
          137.8320333323743,
          5.699652190566514
        ]
      }
    },
    {
      "type": "Feature",
      "properties": {
        "norad_id": 41752,
        "name": "INSAT-3DR",
        "group": "weather",
        "lat": 0.06792348480492647,
        "lon": -133.67753083210556,
        "alt_km": 35743.91520335269,
        "timestamp": "2025-12-26T03:50:11.730009+00:00",
        "meta_object_name": "INSAT-3DR",
        "meta_object_id": "2016-054A",
        "meta_epoch": "2025-12-24T15:09:51.705216",
        "meta_mean_motion": 1.00271379,
        "meta_eccentricity": 0.00142635,
        "meta_inclination": 0.1198,
        "meta_ra_of_asc_node": 86.2568,
        "meta_arg_of_pericenter": 185.6475,
        "meta_mean_anomaly": 122.9543,
        "meta_ephemeris_type": 0,
        "meta_classification_type": "U",
        "meta_norad_cat_id": 41752,
        "meta_element_set_no": 999,
        "meta_rev_at_epoch": 3406,
        "meta_bstar": 0,
        "meta_mean_motion_dot": -5.6e-07,
        "meta_mean_motion_ddot": 0,
        "tle_line1": "1 41752U 16054A   25358.63184844 -.00000056  00000+0  00000+0 0  9996",
        "tle_line2": "2 41752   0.1198  86.2568 0014263 185.6475 122.9543  1.00271379 34066"
      },
      "geometry": {
        "type": "Point",
        "coordinates": [
          -133.67753083210556,
          0.06792348480492647
        ]
      }
    },
    {
      "type": "Feature",
      "properties": {
        "norad_id": 41836,
        "name": "HIMAWARI-9",
        "group": "weather",
        "lat": -0.015091074222657947,
        "lon": -66.78084102972544,
        "alt_km": 35782.29266688037,
        "timestamp": "2025-12-26T03:50:11.730022+00:00",
        "meta_object_name": "HIMAWARI-9",
        "meta_object_id": "2016-064A",
        "meta_epoch": "2025-12-25T12:54:35.530272",
        "meta_mean_motion": 1.00269178,
        "meta_eccentricity": 0.0001265,
        "meta_inclination": 0.01,
        "meta_ra_of_asc_node": 87.1528,
        "meta_arg_of_pericenter": 236.8608,
        "meta_mean_anomaly": 104.712,
        "meta_ephemeris_type": 0,
        "meta_classification_type": "U",
        "meta_norad_cat_id": 41836,
        "meta_element_set_no": 999,
        "meta_rev_at_epoch": 3346,
        "meta_bstar": 0,
        "meta_mean_motion_dot": -2.54e-06,
        "meta_mean_motion_ddot": 0,
        "tle_line1": "1 41836U 16064A   25359.53791123 -.00000254  00000+0  00000+0 0  9994",
        "tle_line2": "2 41836   0.0100  87.1528 0001265 236.8608 104.7120  1.00269178 33468"
      },
      "geometry": {
        "type": "Point",
        "coordinates": [
          -66.78084102972544,
          -0.015091074222657947
        ]
      }
    }
  ]
}